store_name,address,city,state,zip,phone,type,lat,lng,products
SPEC S WINES SPIRITS & FI #153,2900 W UNIVERSITY DR SUITE 100,MCKINNEY,TX,75071,,,,,"Moonlight Mayhem, Moonlight Mayhem 2 White Port Wolf, Moonlight Mayhem Extended Cut"
SPEC S LIQUOR #150  SPEC S WIN,9500 N CENTRAL EXPRESSWAY SUIT,DALLAS,TX,75231,,,,,"Moonlight Mayhem, Moonlight Mayhem 2 White Port Wolf, Moonlight Mayhem Extended Cut"
SPEC S WINES SPIRITS & FI #100,5219 DEZAVALA ROAD #100,SAN ANTONIO,TX,78249,,,,,"Moonlight Mayhem, Moonlight Mayhem 2 White Port Wolf, Moonlight Mayhem Extended Cut"
SPEC S LIQUOR WINE BEER & #223,12425 SOUTH FWY,FORT WORTH,TX,76028,,,,,"Moonlight Mayhem, Moonlight Mayhem 2 White Port Wolf, Moonlight Mayhem Extended Cut"
SPEC S WINES SPIRITS & FIN#221,19000 LIMESTONE COMMERCIAL DR,PFLUGERVILLE,TX,78660,,,,,"Moonlight Mayhem, Moonlight Mayhem 2 White Port Wolf, Moonlight Mayhem Extended Cut"
GRP SPIRITS,1010 ISUZU PARKWAY,GRAND PRAIRIE,TX,75050,,,,,"Moonlight Mayhem, Moonlight Mayhem 2 White Port Wolf, Moonlight Mayhem Extended Cut, Quadraforce Blended Bourbon, Ryes of the Robot Extended Cut, Ryes of the Robots"
SPEC S WINES SPIRITS&FINER#107,6816 SLIDE ROAD SUITE 12,LUBBOCK,TX,79424,,,,,"Moonlight Mayhem, Moonlight Mayhem 2 White Port Wolf, Moonlight Mayhem Extended Cut"
SPEC S WINES SPIRITS & #226,1151 FM 407,LEWISVILLE,TX,75077,,,,,"Moonlight Mayhem, Moonlight Mayhem 2 White Port Wolf, Moonlight Mayhem Extended Cut"
SPEC S WINES SPIRITS & FIN#178,9564 CITADEL WAY DRIVE,FORT WORTH,TX,76177,,,,,"Moonlight Mayhem, Moonlight Mayhem 2 White Port Wolf, Moonlight Mayhem Extended Cut"
SPEC S WINE SPIRITS AND FI#53,8416 KATY FREEWAY,SPRING VALLEY,TX,77024,,,,,"Moonlight Mayhem, Moonlight Mayhem 2 White Port Wolf, Moonlight Mayhem Extended Cut"
SPEC S WINE SPIRITS AND FI#71,3902 BISSONNET,HOUSTON,TX,77005,,,,,"Moonlight Mayhem, Moonlight Mayhem 2 White Port Wolf, Moonlight Mayhem Extended Cut"
SPECS WINE SPIRITS & FINER#190,3371 RENNER RD,PLANO,TX,75074,,,,,"Moonlight Mayhem, Moonlight Mayhem 2 White Port Wolf, Moonlight Mayhem Extended Cut"
SPEC S LIQUORS WINES BEERS#117,12211 CULEBRA RD,SAN ANTONIO,TX,78253,,,,,"Moonlight Mayhem, Moonlight Mayhem 2 White Port Wolf, Moonlight Mayhem Extended Cut"
SPEC S WINES SPIRITS & FIN#113,11751 BANDERA ROAD,SAN ANTONIO,TX,78250,,,,,"Moonlight Mayhem, Moonlight Mayhem 2 White Port Wolf, Moonlight Mayhem Extended Cut"
SPEC S LIQUOR STORE #15 SPEC S,25044 IH 45 NORTH,SPRING,TX,77386,,,,,"Moonlight Mayhem, Moonlight Mayhem 2 White Port Wolf, Moonlight Mayhem Extended Cut"
SPEC S WAREHOUSE WAREHOUSE OF,2410 SMITH,HOUSTON,TX,77006,,,,,"Moonlight Mayhem, Moonlight Mayhem 2 White Port Wolf, Moonlight Mayhem Extended Cut"
SPEC S WINE SPIRITS & CIGAR#55,14315 CYPRESS ROSEHILL,CYPRESS,TX,77429,,,,,"Moonlight Mayhem, Moonlight Mayhem 2 White Port Wolf, Moonlight Mayhem Extended Cut"
SPEC S WINES SPIRITS & FIN#222,11089 NORTHWEST FWY,HOUSTON,TX,77092,,,,,"Moonlight Mayhem, Moonlight Mayhem 2 White Port Wolf, Moonlight Mayhem Extended Cut"
SPEC S WINE SPIRITS #175,8110 HWY 78,SACHSE,TX,75048,,,,,"Moonlight Mayhem, Moonlight Mayhem 2 White Port Wolf, Moonlight Mayhem Extended Cut"
SPEC S WINES SPIRITS & FINER,2750 S HULEN STREET,FORT WORTH,TX,76109,,,,,"Moonlight Mayhem, Moonlight Mayhem 2 White Port Wolf, Moonlight Mayhem Extended Cut"
SPEC S WINES SPIRITS & FI #187,535 AMERICAN WAY,TERRELL,TX,75160,,,,,"Moonlight Mayhem, Moonlight Mayhem 2 White Port Wolf, Moonlight Mayhem Extended Cut"
SPEC S WINES  SPIRITS & FIN#61,4970 HWY 290 WEST BLDG 6 UNIT,AUSTIN,TX,78735,,,,,"Moonlight Mayhem, Moonlight Mayhem 2 White Port Wolf, Moonlight Mayhem Extended Cut"
SPEC S WINES SPIRITS #160,4720 BRYANT IRVIN ROAD,FORT WORTH,TX,76132,,,,,"Moonlight Mayhem, Moonlight Mayhem 2 White Port Wolf, Moonlight Mayhem Extended Cut"
SPEC S LIQUORS  WINES BEER#224,1500 W 35TH ST,AUSTIN,TX,78703,,,,,"Moonlight Mayhem, Moonlight Mayhem 2 White Port Wolf, Moonlight Mayhem Extended Cut"
SPEC S WINES SPIRITS & FI #203,650 SW E CRAWFORD AVE,FATE,TX,75189,,,,,"Moonlight Mayhem, Moonlight Mayhem 2 White Port Wolf, Moonlight Mayhem Extended Cut"
SPEC S LIQUORS #124,28595 TOMBALL PARKWAY,TOMBALL,TX,77375,,,,,"Moonlight Mayhem, Moonlight Mayhem 2 White Port Wolf, Moonlight Mayhem Extended Cut"
SPEC S LIQUORS #2 SPEC S WINES,11990 WESTHEIMER,HOUSTON,TX,77077,,,,,"Moonlight Mayhem, Moonlight Mayhem 2 White Port Wolf, Moonlight Mayhem Extended Cut"
SPEC S WINES SPIRITS & FIN#225,900 S SH 78,LEVON,TX,75166,,,,,"Moonlight Mayhem, Moonlight Mayhem 2 White Port Wolf, Moonlight Mayhem Extended Cut"
SPEC S WINES & SPIRITS SP #128,15055 INWOOD ROAD,ADDISON,TX,75001,,,,,"Moonlight Mayhem, Moonlight Mayhem 2 White Port Wolf, Moonlight Mayhem Extended Cut"
SPEC S WINES SPIRITS & FIN#138,950 S PRESTON RD,PROSPER,TX,75078,,,,,"Moonlight Mayhem, Moonlight Mayhem 2 White Port Wolf, Moonlight Mayhem Extended Cut"
SPEC S WINE SPIRITS & FINER#39,4102 FM 762,ROSENBERG,TX,77469,,,,,"Moonlight Mayhem, Moonlight Mayhem 2 White Port Wolf, Moonlight Mayhem Extended Cut"
SPEC S WINES SPIRITS & FIN#202,3705 RAGLAND RD,GRAND PRAIRIE,TX,75052,,,,,"Moonlight Mayhem, Moonlight Mayhem 2 White Port Wolf, Moonlight Mayhem Extended Cut"
SPEC S WINE SPIRITS & FINE#191,971 N HIGHWAY 67 STE 400,CEDAR HILL,TX,75104,,,,,"Moonlight Mayhem, Moonlight Mayhem 2 White Port Wolf, Moonlight Mayhem Extended Cut"
M & R LIQUORS VIII,13133 LOUETTA RD #B,CYPRESS,TX,77429,,,,,"Moonlight Mayhem Extended Cut, Ryes of the Robots"
WHISKEY CHARLIE S LIQUOR #7,6823 S FRY ROAD SUITE 100,HOUSTON,TX,77494,,,,,"Moonlight Mayhem 2 White Port Wolf, Ryes of the Robot Extended Cut"
WHISKEY CHARLIE S LIQUOR #4,9818 FRY ROAD SUITE 120,CYPRESS,TX,77433,,,,,Moonlight Mayhem
Vista Wine and Spirits - WAREHOUSE,SFDW Inc,Santee,CA,92071,(619) 663-4134,,,,"Moonlight Mayhem, Quadraforce Blended Bourbon"
Filmland Spirits - SAMPLES,Bluegrass Bottling LLC,West Hills,CA,91307,(310) 435-0624,,,,"Moonlight Mayhem, Moonlight Mayhem 2 White Port Wolf, Moonlight Mayhem Extended Cut, Quadraforce Blended Bourbon, Ryes of the Robot Extended Cut, Ryes of the Robots"
Remedy Liquor,Remedy Wholesale LLC,Glendale,CA,91201,(818) 549-1055,,,,"Moonlight Mayhem, Moonlight Mayhem 2 White Port Wolf, Ryes of the Robot Extended Cut, Ryes of the Robots"
Vendome Wine & Spirits - Toluca Lak,10600 Riverside Dr,Toluca Lake,CA,91602,(818) 766-9593,,,,"Moonlight Mayhem, Moonlight Mayhem 2 White Port Wolf, Moonlight Mayhem Extended Cut, Quadraforce Blended Bourbon, Ryes of the Robot Extended Cut, Ryes of the Robots"
Littlebear Bottleshop,Littlebear LLC,Skyforest,CA,92385,(909) 744-8861,,,,"Moonlight Mayhem, Moonlight Mayhem 2 White Port Wolf, Ryes of the Robots"
Hi-Time Wine Cellars - Costa Mesa,Son Vay Corporation,Costa Mesa,CA,92627,(949) 650-8463,,,,"Moonlight Mayhem, Moonlight Mayhem 2 White Port Wolf, Quadraforce Blended Bourbon, Ryes of the Robot Extended Cut"
Grapes & Grains,Steve Enterprises Inc,Paso Robles,CA,93446,,,,,"Moonlight Mayhem, Moonlight Mayhem 2 White Port Wolf, Moonlight Mayhem Extended Cut, Quadraforce Blended Bourbon"
Wine Country The,Kemner Wine  Inc.,Signal Hill,CA,90755,(562) 597-8303,,,,"Quadraforce Blended Bourbon, Ryes of the Robots"
Legionnaire Saloon The,Spooky Magic Inc / Bourbon Tree Inc,Oakland,CA,94612,(510) 289-4425,,,,"Moonlight Mayhem, Moonlight Mayhem 2 White Port Wolf, Moonlight Mayhem Extended Cut, Ryes of the Robot Extended Cut, Ryes of the Robots"
Hi Proof Whisky & Spirits,Lebonvin Inc,Fullerton,CA,92835,,,,,"Moonlight Mayhem, Moonlight Mayhem Extended Cut, Ryes of the Robot Extended Cut, Ryes of the Robots"
Emilio s Beverage Warehouse,Emilio s Beverage Warehouse Inc.,Bellflower,CA,90706,(562) 630-8683,,,,"Moonlight Mayhem, Quadraforce Blended Bourbon"
Pour Decisions Liquor,Eak Investment Inc,Monterey,CA,93940,(831) 657-5272,,,,"Moonlight Mayhem 2 White Port Wolf, Quadraforce Blended Bourbon"
Total Wine & More - 1146 Emeryville,California Fine Wine & Spirits LLC,Emeryville,CA,94508,(510) 989-4299,,,,Quadraforce Blended Bourbon
Mollie Stones-SF 18th St,Albeco Inc,San Francisco,CA,94114,(415) 255-8959,,,,Moonlight Mayhem
Drinkie s Liquor,192 Country Club Gat,Pacific Grove,CA,93950,(831) 915-4451,,,,"Quadraforce Blended Bourbon, Ryes of the Robot Extended Cut"
Journey Downtown,Journey Cafe Inc,Vacaville,CA,95688,(707) 999-0129,,,,"Moonlight Mayhem, Moonlight Mayhem Extended Cut, Quadraforce Blended Bourbon, Ryes of the Robot Extended Cut, Ryes of the Robots"
Bob s Liquor - Redding,W Brothers Inc,Redding,CA,96002,(530) 222-8048,,,,"Moonlight Mayhem Extended Cut, Ryes of the Robot Extended Cut"
Liquorama,Liquorama Upland Inc,Upland,CA,91786,(909) 985-3131,,,,Ryes of the Robots
Liquor and Food Mart,River N Field Inc,Mountain View,CA,94040,(650) 969-0656,,,,"Moonlight Mayhem 2 White Port Wolf, Moonlight Mayhem Extended Cut, Ryes of the Robot Extended Cut"
Urban Market & More - Rocklin,Bajwa  Manroop,Rocklin,CA,95765,(916) 365-7979,,,,"Moonlight Mayhem Extended Cut, Ryes of the Robot Extended Cut"
Evening Citizen The,You Have No Choice Inc,Palm Springs,CA,92262,(761) 424-8301,,,,Ryes of the Robots
Mollie Stones-SF Pacific Heights,Albeco Inc,San Francisco,CA,94115,(415) 567-4902,,,,Moonlight Mayhem
Johny s Liquor - Montebello,Johny s Inc.,Montebello,CA,90640,(323) 721-2391,,,,Ryes of the Robot Extended Cut
Old Town Wine and Spirits,Nellys Market Inc.,San Diego,CA,92110,(619) 291-4888,,,,"Moonlight Mayhem Extended Cut, Ryes of the Robots"
Wine.com,Wine.com LLC,San Leandro,CA,94577,(415) 248-4455,,,,Moonlight Mayhem Extended Cut
Servall Market,Servall Market Inc,San Diego,CA,92103,(619) 692-3225,,,,Moonlight Mayhem Extended Cut
Filmland Spirits,22512 Cantlay Street,West HIlls,CA,91307,(310) 435-0624,,,,"Moonlight Mayhem, Moonlight Mayhem Extended Cut, Quadraforce Blended Bourbon, Ryes of the Robot Extended Cut, Ryes of the Robots"
200 Peachtree,Ste 206 200 Peachtree ST NW,Atlanta,GA,30303,(610) 809-9795,,,,"Moonlight Mayhem Extended Cut, Quadraforce Blended Bourbon, Ryes of the Robot Extended Cut"
Brandon s Package Store FYTL,965 Glynn St N,Fayetteville,GA,30214,(678) 667-6161,,,,"Moonlight Mayhem, Moonlight Mayhem Extended Cut, Quadraforce Blended Bourbon, Ryes of the Robot Extended Cut, Ryes of the Robots"
Meehan s Public House,200 Peachtree St NW Ste L6,Atlanta,GA,30303,,,,,"Moonlight Mayhem Extended Cut, Quadraforce Blended Bourbon"
The Beverage Superstore of Grayson,2265 Loganville Hwy,Grayson,GA,30017,(770) 995-9509,,,,"Moonlight Mayhem, Quadraforce Blended Bourbon, Ryes of the Robot Extended Cut, Ryes of the Robots"
Jax Beverage Superstore Conyers *CL,1897 Hwy 20 SE,Conyers,GA,30013,(770) 596-0915,,,,"Moonlight Mayhem Extended Cut, Quadraforce Blended Bourbon, Ryes of the Robot Extended Cut"
Bankhead Beverage,1595 Bankhead Hwy,Carrollton,GA,30116,,,,,"Moonlight Mayhem, Moonlight Mayhem Extended Cut, Quadraforce Blended Bourbon"
Sip Wine & Spirits,3915 Towne Club Parkway Ste C,Cumming,GA,30041,(617) 991-8182,,,,"Moonlight Mayhem, Moonlight Mayhem Extended Cut, Ryes of the Robot Extended Cut"
Evans Liquors,8782 US-301,Claxton,GA,30417,(912) 660-6064,,,,"Moonlight Mayhem Extended Cut, Quadraforce Blended Bourbon"
Tower Beer & Wine,2161 Piedmont Rd NE,Atlanta,GA,30324,(404) 881-0902,,,,"Moonlight Mayhem, Quadraforce Blended Bourbon"
ABC Warehouse,1100 Eisenhower DR,Savannah,GA,31406,(864) 245-1403,,,,"Moonlight Mayhem, Moonlight Mayhem Extended Cut, Quadraforce Blended Bourbon, Ryes of the Robot Extended Cut"
Reliance Enterprises LLC,Ste 110 100 Zoya Lane,Pooler,GA,31322,,,,,Moonlight Mayhem Extended Cut
The Grove Wine & Spirits,1841 Walnut Grove Pkwy,Covington,GA,30014,(518) 466-6676,,,,"Moonlight Mayhem Extended Cut, Ryes of the Robot Extended Cut"
Sigman Bottle Shop,439 Sigman Rd NW  Ste A,Conyers,GA,30012,,,,,"Moonlight Mayhem Extended Cut, Ryes of the Robot Extended Cut"
Forsyth World of Beverage,3535 Peachtree Parkway,Suwanee,GA,30024,(678) 416-6001,,,,"Ryes of the Robot Extended Cut, Ryes of the Robots"
Mega Beverage Rome,42 Hicks De SE,Rome,GA,30161,(706) 584-7795,,,,Quadraforce Blended Bourbon
Big John s Package Store,5345 A Memorial Dr,Stone Mountain,GA,30083,(404) 292-8518,,,,Quadraforce Blended Bourbon
Jax Superstore,2438 Hancock Dr,Buford,GA,30190,(678) 828-7432,,,,"Moonlight Mayhem, Moonlight Mayhem Extended Cut, Quadraforce Blended Bourbon"
Carrollton Beverage,1128 N Park Street,Carrollton,GA,30117,(205) 200-3078,,,,"Moonlight Mayhem, Moonlight Mayhem Extended Cut, Quadraforce Blended Bourbon, Ryes of the Robots"
Liberty World Beverage,3700 Village Way,Braselton,GA,30517,(770) 307-0321,,,,"Quadraforce Blended Bourbon, Ryes of the Robot Extended Cut, Ryes of the Robots"
Olde Crabapple Bottle Shoppe,12280 Houze Rd,Alpharetta,GA,30004,,,,,"Moonlight Mayhem, Moonlight Mayhem Extended Cut"
The Wine Store (Johns Creek),8455 Holcomb Bridge Rd Ste A,Johns Creek,GA,30022,,,,,"Moonlight Mayhem, Moonlight Mayhem Extended Cut"
Rox Wine & Spirits (Cumming),910 Peachtree Pkwy,Cumming,GA,30041,(404) 579-8252,,,,"Moonlight Mayhem, Moonlight Mayhem Extended Cut"
Capitol City Package Store,784 Collier Rd NW,Atlanta,GA,30318,(404) 351-7579,,,,"Ryes of the Robot Extended Cut, Ryes of the Robots"
Doraville Liquor Store  (TOWER),5877 Buford Hwy NE,Doraville,GA,30340,(770) 458-3273,,,,"Ryes of the Robot Extended Cut, Ryes of the Robots"
Gold Rush Spirits,19 Choice Ave.,Dahlonega,GA,30533,(770) 369-6169,,,,"Moonlight Mayhem, Quadraforce Blended Bourbon"
Twenty Nine Package,4132 Lawrenceville Hwy NW,Lilburn,GA,30047,(770) 696-9244,,,,"Moonlight Mayhem, Quadraforce Blended Bourbon"
McFarland 400 Wine Spirits Cigars,899 McFarland Pkwy STE 100,Alpharetta,GA,30004,(678) 551-5059,,,,"Moonlight Mayhem, Quadraforce Blended Bourbon"
County Line Liquors,2201 Gray Hwy  Bldg Single,Macon,GA,31211,(478) 258-4649,,,,"Moonlight Mayhem, Quadraforce Blended Bourbon"
East Point Package,1805 Washington Ave,East Point,GA,30344,,,,,"Quadraforce Blended Bourbon, Ryes of the Robot Extended Cut"
Cumming Beverage Mart,1770 Buford Hwy Ste A,Cumming,GA,30041,(770) 823-8832,,,,"Moonlight Mayhem, Quadraforce Blended Bourbon"
Crest Package Store,371 N Central Ave,Hapeville,GA,30354,(770) 559-0328,,,,"Quadraforce Blended Bourbon, Ryes of the Robot Extended Cut"
P C A Package Store,1202 Hogansville Rd,Lagrange,GA,30241,(706) 812-0707,,,,"Quadraforce Blended Bourbon, Ryes of the Robot Extended Cut"
Hiram Bottle Shop,4547 Jimmy Lee Smith Parkway,Hiram,GA,30141,(404) 483-0336,,,,Moonlight Mayhem Extended Cut
Bottoms Up,22 Bottoms Up Way,Newnan,GA,30263,(706) 340-4574,,,,"Moonlight Mayhem, Quadraforce Blended Bourbon"
Beverage Haven,2014 Powers Ferry Rd SE Ste 500,Atlanta,GA,30339,,,,,"Moonlight Mayhem, Quadraforce Blended Bourbon"
Zebulon Package Store,610 Thomaston St,Zebulon,GA,30295,(678) 895-6229,,,,"Moonlight Mayhem Extended Cut, Quadraforce Blended Bourbon"
124 Package (Lithonia),7980 Rockbridge Rd,Lithonia,GA,30058,(404) 428-0343,,,,"Ryes of the Robot Extended Cut, Ryes of the Robots"
Asap Liquors,3595 Canton Rd Ste 13,Marietta,GA,30066,(678) 852-8525,,,,"Moonlight Mayhem, Quadraforce Blended Bourbon"
Js Beverage Depot,1570 Holcomb Bridge Rd Ste 610,Roswell,GA,30076,(404) 951-2442,,,,"Moonlight Mayhem Extended Cut, Quadraforce Blended Bourbon"
Valkyria Group LLC,6035 Peachtree Rd Ste 106,Doraville,GA,30360,(770) 875-8009,,,,"Quadraforce Blended Bourbon, Ryes of the Robot Extended Cut"
Nick s Package Store,3210 Tucker Norcross,Tucker,GA,30084,,,,,"Moonlight Mayhem Extended Cut, Quadraforce Blended Bourbon"
Citi Wine and Spirits,223 Moreland Ave SE,Atlanta,GA,30316,(404) 688-2744,,,,"Quadraforce Blended Bourbon, Ryes of the Robots"
Eric Crane,685 Hartman Road,Austell,GA,30168,(404) 572-4111,,,,"Moonlight Mayhem, Moonlight Mayhem Extended Cut, Ryes of the Robots"
Brockett Pub House & Grill,4522 East Ponce DeLeon Ave,Clarkston,GA,30021,,,,,"Moonlight Mayhem, Quadraforce Blended Bourbon"
Max Lager Amer Grill & Brew,320 Peachtree St NE,Atlanta,GA,30308,(770) 344-9447,,,,Quadraforce Blended Bourbon
Thomas Davis,685 Hartman Rd,Austell,GA,30168,(404) 200-4054,,,,Quadraforce Blended Bourbon
Bainbridge Bottle Shop,925 E. Shotwell St,Bainbridge,GA,39819,(229) 416-6282,,,,Quadraforce Blended Bourbon
R&J DISCOUNT LIQUOR,3015 E DOUGLAS,WICHITA,KS,67211,(316) 681-3761,,,,"Moonlight Mayhem, Moonlight Mayhem 2 White Port Wolf, Quadraforce Blended Bourbon"
LIQUOR CABINET,2350 N GREENWICH,WICHITA,KS,67226,(316) 978-9285,,,,"Moonlight Mayhem 2 White Port Wolf, Ryes of the Robots, Town at the End of Tomorrow"
WS CRAFT SPIRITS,3636 N COMOTARA ST STE3,WICHITA,KS,67226,(316) 636-9100,,,,"Moonlight Mayhem, Moonlight Mayhem 2 White Port Wolf, Quadraforce Blended Bourbon"
GODDARD CENTRAL W & S,19950 W KELLOGG,GODDARD,KS,67052,(316) 696-9100,,,,"Moonlight Mayhem, Moonlight Mayhem 2 White Port Wolf"
ABC DISC. LIQ. #1,7310 W CENTRAL,WICHITA,KS,67212,(316) 722-4801,,,,"Moonlight Mayhem, Moonlight Mayhem 2 White Port Wolf, Quadraforce Blended Bourbon"
DEVLIN RETAIL LIQUOR 29TH A6%,2850 WANAMAKER ROAD,TOPEKA,KS,66614,(785) 273-8899,,,,"Moonlight Mayhem, Moonlight Mayhem Extended Cut, Quadraforce Blended Bourbon, Ryes of the Robot Extended Cut, Ryes of the Robots"
AUBURN WINE & SPIRITS,320 N ROCK ROAD,WICHITA,KS,67206,(316) 260-9463,,,,"Moonlight Mayhem, Moonlight Mayhem 2 White Port Wolf, Quadraforce Blended Bourbon, Town at the End of Tomorrow"
JACOB LIQUOR EXCHANGE,3049 N ROCK ROAD,WICHITA,KS,67226,(316) 636-4566,,,,"Moonlight Mayhem, Ryes of the Robots"
GOEBEL LIQUOR,352 S. WEST ST. #400,WICHITA,KS,67213,(316) 943-2911,,,,Moonlight Mayhem 2 White Port Wolf
ON THE ROCKS DISCOUNT LIQ,1818 MASSACHUSETTS,LAWRENCE,KS,66044,(785) 841-2337,,,,"Moonlight Mayhem, Ryes of the Robots, Town at the End of Tomorrow"
AUBURN SPIRITS,13303 W MAPLE,WICHITA,KS,67235,(316) 440-1111,,,,"Moonlight Mayhem, Moonlight Mayhem 2 White Port Wolf"
TOTAL WINE & MORE #2801,2762 N GREENWICH RD,WICHITA,KS,67226,(703) 673-8350,,,,Ryes of the Robots
TOM S WINE & SPIRITS,133 E 47TH ST. SOUTH,WICHITA,KS,67216,(316) 522-9463,,,,Moonlight Mayhem 2 White Port Wolf
JACOB LIQUOR EXCHANGE II,10221 W 21ST STREET,WICHITA,KS,67212,(316) 722-2266,,,,Moonlight Mayhem
MOONLIGHT LIQUORS,265 N. MOONLIGHT ROAD,GARDNER,KS,66030,(913) 856-5265,,,,"Moonlight Mayhem, Quadraforce Blended Bourbon, Ryes of the Robots"
BOB S LIQUOR & WINE,1801 MAIN ST,WINFIELD,KS,67156,(708) 465-4406,,,,Ryes of the Robots
THE DAM LIQUOR STORE,229 CROSS ST,BURLINGTON,KS,66839,(620) 490-0339,,,,"Moonlight Mayhem, Ryes of the Robots"
BEER GOGGLES SUPERSTORE,2307 C TUTTLE CRK BLVD,MANHATTAN,KS,66502,,,,,"Moonlight Mayhem 2 White Port Wolf, Moonlight Mayhem Extended Cut"
BURGARDT RETAIL LIQUOR,3027 E PAWNEE,WICHITA,KS,67211,(316) 682-5167,,,,"Moonlight Mayhem, Quadraforce Blended Bourbon, Ryes of the Robots"
OXFORD LIQUOR,100 S SUMNER ST,OXFORD,KS,67119,(316) 214-1704,,,,"Moonlight Mayhem, Ryes of the Robots"
FIRST LIQUORS,7629 QUIVIRA ROAD,SHAWNEE,KS,66216,(479) 250-8120,,,,"Moonlight Mayhem Extended Cut, Quadraforce Blended Bourbon, Ryes of the Robots"
CENTRAL MARKET WINE & SPI,4729 E CENTRAL AVENUE,WICHITA,KS,67208,(316) 260-1360,,,,Moonlight Mayhem 2 White Port Wolf
PARTYLINE LIQUOR,1028 SE LOUIS STREET,MULVANE,KS,67110,(316) 777-1500,,,,Moonlight Mayhem 2 White Port Wolf
DIX LIQUORS,12028 W 95TH ST,LENEXA,KS,66215,(913) 262-3181,,,,"Moonlight Mayhem, Moonlight Mayhem Extended Cut, Ryes of the Robots"
159TH METCALF LIQ N CIGAR,15895 METCALF AVE,OVERLAND PARK,KS,66223,(913) 302-2211,,,,Ryes of the Robots
MASS BEVERAGE,3131A NIEDER ROAD,LAWRENCE,KS,66047,(785) 856-7055,,,,"Moonlight Mayhem, Town at the End of Tomorrow"
OASIS LIQUOR,17520 NEW TRAILS PARKWAY,GARDNER,KS,66030,(913) 827-3675,,,,"Moonlight Mayhem, Ryes of the Robots"
FLEMING PLACE WINE&SPRT A6%,4001 S W 10TH STREET,TOPEKA,KS,66604,(785) 272-6008,,,,"Moonlight Mayhem, Ryes of the Robots"
PHATZ LIQUOR,1024 W 8TH ST,WELLINGTON,KS,67152,(620) 359-1626,,,,"Moonlight Mayhem, Ryes of the Robots"
LIQUOR HOUSE,22731 W 55TH TERRACE,SHAWNEE,KS,66226,(785) 640-8415,,,,"Moonlight Mayhem, Moonlight Mayhem Extended Cut"
LIBRARY LIQUOR,521 N 12TH,MANHATTAN,KS,66502,(785) 539-5269,,,,Moonlight Mayhem
KINSALE WINE & SPIRITS,16517 W. 159TH ST,OLATHE,KS,66062,(913) 768-9420,,,,Moonlight Mayhem
GARDNER LIQUOR,18345 S GARDNER ROAD,GARDNER,KS,66030,(913) 884-5235,,,,"Moonlight Mayhem, Ryes of the Robots"
DAVID LIQUOR OUTLET,3331 E 47TH SOUTH,WICHITA,KS,67216,(316) 524-4634,,,,"Moonlight Mayhem, Ryes of the Robots"
KINGS LIQUOR,18589 WEST 151ST STREET,OLATHE,KS,66062,(913) 406-6888,,,,Moonlight Mayhem
WHEATLAND LIQUOR,5600 W. MACARTHUR,WICHITA,KS,67215,(316) 522-1602,,,,Ryes of the Robots
T TOWN LIQUOR,420 STONE CREEK DRIVE,TONGANOXIE,KS,66086,(913) 417-0065,,,,"Moonlight Mayhem, Ryes of the Robots"
WS HOSPITALITY,3636 N COMOTARA ST STE2,WICHITA,KS,67226,(316) 636-9100,,,,Moonlight Mayhem
BING BROTHERS,1302 MAIN ST,WINFIELD,KS,67156,(620) 221-3826,,,,Moonlight Mayhem
OSHAUGHNESSY LIQUOR,1211 EAST STREET,IOLA,KS,66749,(620) 365-5702,,,,Moonlight Mayhem
BLU SKY LIQUORS,846 MAIN STREET,OTTAWA,KS,66067,(785) 242-1188,,,,"Moonlight Mayhem, Ryes of the Robots, Town at the End of Tomorrow"
OLD TOWN LIQUORS,1529 BARDSTOWN RD,LOUISVILLE,KY,40204,,,,,"Moonlight Mayhem, Moonlight Mayhem 2 White Port Wolf, Moonlight Mayhem Extended Cut, Ryes of the Robot Extended Cut, Ryes of the Robots"
LIQUOR BARN #980,4131 TOWNE CENTER DR,LOUISVILLE,KY,40241,(502) 426-4222,,,,"Moonlight Mayhem, Quadraforce Blended Bourbon, Ryes of the Robots"
FOOD CITY #458 W&S,215 CASSIDY BLVD STE 101,PIKEVILLE,KY,41501,(999) 999-9999,,,,"Moonlight Mayhem, Moonlight Mayhem Extended Cut, Ryes of the Robot Extended Cut, Ryes of the Robots"
COX S EVERGREEN LIQUOR#41,127 N 3RD ST.,BARDSTOWN,KY,40004,(502) 244-0065,,,,"Moonlight Mayhem Extended Cut, Ryes of the Robots"
TOTAL WINE SPIRITS BEER,161 LEXINGTON GREEN CIRCL,LEXINGTON,KY,40503,(270) 123-4567,,,,Moonlight Mayhem
LIQUOR BARN  #920,1837 PLAUDIT PLACE,LEXINGTON,KY,40509,(859) 294-5700,,,,"Moonlight Mayhem, Quadraforce Blended Bourbon, Ryes of the Robots"
LIQUOR BARN #960,1850 S HURSTBORNE PKWY,LOUISVILLE,KY,40220,(502) 491-0753,,,,"Quadraforce Blended Bourbon, Ryes of the Robots"
THE PARTY SOURCE,95 RIVIERA DRIVE,BELLEVUE,KY,41073,(859) 291-4007,,,,"Moonlight Mayhem 2 White Port Wolf, Moonlight Mayhem Extended Cut"
THE BLIND PIG BOURBON MKT,212 N 3RD STREET,BARDSTOWN,KY,40004,(502) 388-9313,,,,"Ryes of the Robot Extended Cut, Ryes of the Robots"
LIQUOR BARN #903,921 BEAUMONT CENTER PKWY,LEXINGTON,KY,40513,(859) 223-1400,,,,"Quadraforce Blended Bourbon, Ryes of the Robot Extended Cut"
LIQUOR BARN #986,1705 N. DIXIE HWY  STE 1A,ELIZABETHTOWN,KY,42701,(270) 900-4446,,,,"Moonlight Mayhem Extended Cut, Quadraforce Blended Bourbon"
LIQUOR BARN #962,13401 SHELBYVILLE RD #134,LOUISVILLE,KY,40243,(502) 244-7738,,,,Moonlight Mayhem Extended Cut
LIQUOR BARN EXPRESS #908,866 EAST HIGH STREET,LEXINGTON,KY,40502,(859) 269-3003,,,,Moonlight Mayhem
OMNI HOTELS,400 S 2ND ST/210 W LIBERT,LOUISVILLE,KY,40202,(502) 313-6691,,,,"Moonlight Mayhem 2 White Port Wolf, Ryes of the Robot Extended Cut"
EVERGREEN LIQUORS NULU,720 EAST MARKET STREET,LOUISVILLE,KY,40202,(502) 225-0101,,,,Moonlight Mayhem Extended Cut
LIQUOR BARN #965,3614 BUECHEL BYPASS #101,LOUISVILLE,KY,40218,(502) 459-8989,,,,Ryes of the Robots
NAVYA 16 LLC,8672 NASHVILLE RD.,BOWLING GREEN,KY,42101,(270) 495-1421,,,,Moonlight Mayhem 2 White Port Wolf
COX S SMOKERS OUTLET #32,12017 SHELBYVILLE RD,LOUISVILLE,KY,40243,(502) 244-1957,,,,Quadraforce Blended Bourbon
E-TOWN LIQUORS,2018 N. MULBERRY STREET,ELIZABETHTOWN,KY,42701,(270) 234-9463,,,,Moonlight Mayhem
OVG KY EXPO CENTER #3284,937 PHILLIPS LN STE B,LOUISVILLE,KY,40209,(502) 367-5000,,,,Moonlight Mayhem
PARTY MART #902,3050 BARDSTOWN RD,LOUISVILLE,KY,40205,(502) 452-1809,,,,Moonlight Mayhem
LIQUOR BARN EXPRESS #901,4808 BROWNSBORO RD,LOUISVILLE,KY,40207,(502) 895-4446,,,,Ryes of the Robots
THE BOURBON BARN,640 W HWY 92,WILLIAMSBURG,KY,40769,(423) 871-3115,,,,Moonlight Mayhem Extended Cut
JOHN O S LIQ &PARTY STOR,508 W DIXIE AVE.,ELIZABETHTOWN,KY,42701,(270) 982-5646,,,,Moonlight Mayhem Extended Cut
LIQUOR BARN #970,3420 FERN VALLEY RD,LOUISVILLE,KY,40219,(502) 968-1666,,,,Moonlight Mayhem Extended Cut
LIQUOR BARN #990,2625 SCOTTSVILLE RD #3021,BOWLING GREEN,KY,42104,(270) 467-9974,,,,Ryes of the Robots
FRANKFORT AVENUE LIQUORS,2115 FRANKFORT AVE,LOUISVILLE,KY,40206,(502) 797-1984,,,,Moonlight Mayhem Extended Cut
THE VOLSTEAD BRBN LOUNGE,107 E FLAGET ST,BARDSTOWN,KY,40004,(502) 931-7482,,,,Ryes of the Robots
BOURBON S BISTRO,2255 FRANKFORT AVE,LOUISVILLE,KY,40206,(502) 894-8838,,,,Moonlight Mayhem Extended Cut
WINE BEER & SPIRITS,3435 OAKVIEW DRIVE,OMAHA,NE,68144,(402) 613-2366,,,,"Moonlight Mayhem, Moonlight Mayhem 2 White Port Wolf, Moonlight Mayhem Extended Cut, Quadraforce Blended Bourbon, Ryes of the Robot Extended Cut, Ryes of the Robots"
HY-VEE WALL TO WALL WINE & SPIRITS,7651 TOWNE CENTER PKWY,PAPILLION,NE,68046,,,,,"Moonlight Mayhem, Moonlight Mayhem 2 White Port Wolf, Moonlight Mayhem Extended Cut, Ryes of the Robot Extended Cut"
HY-VEE #2,1601 N. 84TH ST.,LINCOLN,NE,68112,(402) 467-5505,,,,"Moonlight Mayhem, Moonlight Mayhem 2 White Port Wolf, Ryes of the Robots"
WINE BEER & SPIRITS (GI),1111 ALLEN DR,GRAND ISLAND,NE,68803,,,,,"Moonlight Mayhem, Moonlight Mayhem 2 White Port Wolf, Moonlight Mayhem Extended Cut, Quadraforce Blended Bourbon, Ryes of the Robot Extended Cut, Ryes of the Robots"
WINE BEER & SPIRITS,5220 N 27TH STREET,LINCOLN,NE,68521,(402) 613-2366,,,,"Moonlight Mayhem, Moonlight Mayhem 2 White Port Wolf, Moonlight Mayhem Extended Cut, Quadraforce Blended Bourbon, Ryes of the Robot Extended Cut, Ryes of the Robots"
QUAIL - BREAKAGE,.,OMAHA,NE,68138,,,,,"Moonlight Mayhem, Moonlight Mayhem 2 White Port Wolf, Moonlight Mayhem Extended Cut, Ryes of the Robot Extended Cut, Ryes of the Robots"
HY-VEE PAPIO 1514,11650 SO. 73RD STREET,PAPILLION,NE,68046,,,,,"Moonlight Mayhem 2 White Port Wolf, Moonlight Mayhem Extended Cut"
BOTTLES & BARRELS,5331 S 204TH AVE,OMAHA,NE,68022,(531) 999-8515,,,,"Moonlight Mayhem 2 White Port Wolf, Moonlight Mayhem Extended Cut"
DUNDEE DELL,5007 UNDERWOOD AVE,OMAHA,NE,68132,(402) 689-7891,,,,"Moonlight Mayhem 2 White Port Wolf, Ryes of the Robots"
MAIN STREET CELLAR,2714 N MAIN ST,OMAHA,NE,68022,(402) 249-9766,,,,"Moonlight Mayhem, Ryes of the Robots"
BUCK S BAR & GRILL,27849 W CENTER RD,OMAHA,NE,68069,(402) 359-4322,,,,Moonlight Mayhem 2 White Port Wolf
BAR INNER RAIL FOOD HALL,1911 SOUTH 67TH ST,OMAHA,NE,68106,(531) 466-7484,,,,Moonlight Mayhem
SAMPLES EVENT,SAMPLES,OMAHA,NE,68138,,,,,Moonlight Mayhem 2 White Port Wolf
QUAIL DISTRIBUTING - SAMPLES,7735 SOUTH 134TH STREET,OMAHA,NE,68138,(402) 926-2395,,,,Quadraforce Blended Bourbon
Cost Low Wines & Liquors,91-20 59th Ave,Elmhurst,NY,11373,,,,,Moonlight Mayhem 2 White Port Wolf
Angel s Share Wine and Spirits,4599 State Route 31,Clay,NY,13041,,,,,"Moonlight Mayhem, Moonlight Mayhem 2 White Port Wolf, Moonlight Mayhem Extended Cut"
Allerton Ave Liquors,689-691 Allerton Ave,Bronx,NY,10467,,,,,"Moonlight Mayhem 2 White Port Wolf, Quadraforce Blended Bourbon"
Rudy s Liquor Store,143 Main St,Cooperstown,NY,13326,,,,,"Moonlight Mayhem, Ryes of the Robots"
Gary s Liquor,141 Essex St,New York,NY,10002,,,,,Ryes of the Robots
Greenfield Wine & Liquor,2534 NYS Rte 9N,Greenfield Cent,NY,12833,,,,,Moonlight Mayhem 2 White Port Wolf
Liquor Lineup 2,Elite Wine and Spirits Inc,North Las Vegas,NV,89031,(702) 616-0311,,,,Moonlight Mayhem
Liquor Outlet The,Vergiels Enterprises LLC,Las Vegas,NV,89123,(702) 897-9463,,,,"Moonlight Mayhem, Ryes of the Robots"
Lee s Discount Liquor #05 - E Flami,Flamingo & Pecos Inc,Las Vegas,NV,89121,,,,,"Moonlight Mayhem Extended Cut, Ryes of the Robot Extended Cut, Ryes of the Robots"
Cask The,Native Vegas LLC,Henderson,NV,89012,(702) 338-1348,,,,Moonlight Mayhem
Lee s Discount Liquor - Wendover,Lee s Family Inc,Wendover,NV,89883,(775) 299-3033,,,,Ryes of the Robots
Lee s Discount Liquor - Azure Tenay,Lee & Azure Tenaya Inc,Las Vegas,NV,89130,,,,,"Moonlight Mayhem, Ryes of the Robot Extended Cut"
Oak & Ivy,Container Bar LLC,Las Vegas,NV,89101,(702) 945-6717,,,,"Moonlight Mayhem, Moonlight Mayhem Extended Cut, Ryes of the Robots"
Lee s Discount Liquor - Blue Diamon,Blue Diamond Liquor LLC,Las Vegas,NV,89139,,,,,Ryes of the Robots
Lee s Discount Liquor #09 - Mesquit,Lee s Family Inc,Mesquite,NV,89027,,,,,"Moonlight Mayhem Extended Cut, Ryes of the Robots"
Lee s Discount Liquor #03 - Lake Me,Lee s Family Inc,Las Vegas,NV,89128,,,,,Ryes of the Robots
Lee s Discount Liquor #16 - Boca Pa,Lee s Family Inc,Las Vegas,NV,89145,,,,,Moonlight Mayhem Extended Cut
Lee s Discount Liquor - Northtowne,Northtowne & Lee Inc,Reno,NV,89512,,,,,Ryes of the Robots
Lee s Discount Liquor - Las Vegas,Lee s Family Inc,Las Vegas,NV,89123,,,,,Moonlight Mayhem Extended Cut
Liquor Outlet The #3,Vergiels Enterprises LLC,Las Vegas,NV,89139,(702) 294-0501,,,,Ryes of the Robots
Lee s Discount Liquor #15 - Flambow,Flamingo & Lee Inc,Las Vegas,NV,89103,,,,,Ryes of the Robot Extended Cut
Lee s Discount Liquor #08 - Eastern,Lee s Family Inc,Henderson,NV,89052,,,,,Ryes of the Robot Extended Cut
Lee s Discount Liquor - S Virginia,Lee & S Virginia Inc,Reno,NV,89511,(775) 525-7402,,,,Moonlight Mayhem Extended Cut
Lee s Discount Liquor #01 - Sunset,Lee s Family Inc,Henderson,NV,89014,,,,,Ryes of the Robot Extended Cut
Lee s Discount Liquor #07 - W Flami,West Flamingo & Fort Apache Inc,Las Vegas,NV,89147,,,,,Ryes of the Robots
Lee s Discount Liquor #21 - El Capi,El Capitan & Lee Inc,Las Vegas,NV,89143,,,,,Moonlight Mayhem Extended Cut
Carson Kitchen,Carson Six Holdings LLC,Las Vegas,NV,89101,(702) 473-9523,,,,Ryes of the Robots
Lee s Discount Liquor - Horizon Rid,Lee s Family Inc,Henderson,NV,89012,,,,,Moonlight Mayhem Extended Cut
Scissors & Scotch,S & S Islay LLC,Las Vegas,NV,89145,(702) 430-2333,,,,Moonlight Mayhem
Tilling House,2000 Lowther Drive,Eatontown,NJ,7724,,,,,"Moonlight Mayhem, Moonlight Mayhem 2 White Port Wolf, Moonlight Mayhem Extended Cut, Ryes of the Robots"
Trevor s 2,Coattails II LLC,Phoenix,AZ,85054,(480) 209-8739,,,,Moonlight Mayhem
Trevor s 4,Coattails Iv LLC,Phoenix,AZ,85032,(480) 680-1719,,,,Moonlight Mayhem
Batch Cafe & Bar,Barrio Brothers LLC,Tucson,AZ,85701,,,,,Ryes of the Robots
Trevor s 3,Coattails III  LLC,Phoenix,AZ,85018,(480) 680-1719,,,,Ryes of the Robots
Liquor Dan,Donut Wheel Inc,Tucson,AZ,85706,(520) 294-4313,,,,"Moonlight Mayhem, Moonlight Mayhem Extended Cut Single Barrel, Quadraforce Blended Bourbon"
Plaza Liquors,2642 N Campbell,Tucson,AZ,85719,(520) 327-0452,,,,"Moonlight Mayhem, Moonlight Mayhem Extended Cut"
Mountain Shadows,Westroc Hotels & Resorts LLC,Paradise Valley,AZ,85253,(602) 769-3338,,,,Quadraforce Blended Bourbon
J s West Side Liquor,Sahara Liquor LLC,Tucson,AZ,85745,,,,,Ryes of the Robots
Tenino IGA Market Fresh,Kirby Co,Tenino,WA,98589,,,,,"Moonlight Mayhem, Moonlight Mayhem Extended Cut"
QFC 807 U-Village,Fred Meyers Stores Inc,Seattle,WA,98105,,,,,Town at the End of Tomorrow
West Seattle Liquor & Wine,EPHA LLC,Seattle,WA,98116,(206) 234-8164,,,,Ryes of the Robot Extended Cut
Flat Iron Grill,Epiphany Restaurants LLC,Issaquah,WA,98027,,,,,Ryes of the Robot Extended Cut